start=new Date('2021-10-14T00:00:00.000Z').valueOf();
sats=[{"MEAN_MOTION":"15.06399800","LAUNCH_DATE":"2021-02-16","MEAN_ANOMALY":"264.4640","TLE_LINE1":"1 47628U 21012J   21286.75954441 -.00000204  00000-0  52285-5 0  9995","APOAPSIS":"548.260","REF_FRAME":"TEME","RA_OF_ASC_NODE":"89.8978","OBJECT_TYPE":"PAYLOAD","MEAN_MOTION_DDOT":"0.0000000000000","BSTAR":"0.00000522850000","MEAN_MOTION_DOT":"-0.00000204","EPOCH":"2021-10-13T18:13:44.637024","DECAY_DATE":null,"OBJECT_ID":"2021-012J","CENTER_NAME":"EARTH","SEMIMAJOR_AXIS":"6925.349","ARG_OF_PERICENTER":"95.6522","MEAN_ELEMENT_THEORY":"SGP4","ELEMENT_SET_NO":"999","REV_AT_EPOCH":"3763","OBJECT_NAME":"STARLINK-1973","TIME_SYSTEM":"UTC","PERIAPSIS":"546.168","ECCENTRICITY":"0.00015100","PERIOD":"95.592","CLASSIFICATION_TYPE":"U","RCS_SIZE":"LARGE","NORAD_CAT_ID":"47628","FILE":"3161149","COUNTRY_CODE":"US","TLE_LINE2":"2 47628  53.0563  89.8978 0001510  95.6522 264.4640 15.06399800 37632","SITE":"AFETR","GP_ID":"187101976","INCLINATION":"53.0563","EPHEMERIS_TYPE":"0"},{"RCS_SIZE":"LARGE","CLASSIFICATION_TYPE":"U","COUNTRY_CODE":"US","FILE":"3161149","NORAD_CAT_ID":"47629","TIME_SYSTEM":"UTC","OBJECT_NAME":"STARLINK-1974","REV_AT_EPOCH":"367","PERIOD":"91.537","PERIAPSIS":"346.389","ECCENTRICITY":"0.00053130","EPHEMERIS_TYPE":"0","INCLINATION":"53.0429","SITE":"AFETR","TLE_LINE2":"2 47629  53.0429 349.3587 0005313 322.9305 279.8743 15.73128762  3676","GP_ID":"187102223","MEAN_MOTION_DDOT":"0.0000000000000","OBJECT_TYPE":"PAYLOAD","RA_OF_ASC_NODE":"349.3587","REF_FRAME":"TEME","APOAPSIS":"353.538","EPOCH":"2021-10-14T00:00:00.999648","MEAN_MOTION_DOT":"-0.00112301","BSTAR":"-0.00080791000000","MEAN_MOTION":"15.73128762","TLE_LINE1":"1 47629U 21012K   21287.00001157 -.00112301  00000-0 -80791-3 0  9996","MEAN_ANOMALY":"279.8743","LAUNCH_DATE":"2021-02-16","MEAN_ELEMENT_THEORY":"SGP4","CENTER_NAME":"EARTH","SEMIMAJOR_AXIS":"6728.098","ARG_OF_PERICENTER":"322.9305","ELEMENT_SET_NO":"999","OBJECT_ID":"2021-012K","DECAY_DATE":null},{"EPHEMERIS_TYPE":"0","INCLINATION":"53.0553","GP_ID":"187100475","SITE":"AFETR","TLE_LINE2":"2 47630  53.0553  70.1905 0001814 101.5922 258.5271 15.06409576 37888","COUNTRY_CODE":"US","FILE":"3161149","NORAD_CAT_ID":"47630","RCS_SIZE":"LARGE","CLASSIFICATION_TYPE":"U","PERIOD":"95.592","PERIAPSIS":"545.928","ECCENTRICITY":"0.00018140","OBJECT_NAME":"STARLINK-1983","TIME_SYSTEM":"UTC","REV_AT_EPOCH":"3788","ELEMENT_SET_NO":"999","MEAN_ELEMENT_THEORY":"SGP4","ARG_OF_PERICENTER":"101.5922","SEMIMAJOR_AXIS":"6925.319","CENTER_NAME":"EARTH","OBJECT_ID":"2021-012L","DECAY_DATE":null,"EPOCH":"2021-10-13T16:34:10.973856","MEAN_MOTION_DOT":"0.00002072","BSTAR":"0.00015794000000","MEAN_MOTION_DDOT":"0.0000000000000","OBJECT_TYPE":"PAYLOAD","RA_OF_ASC_NODE":"70.1905","REF_FRAME":"TEME","APOAPSIS":"548.440","MEAN_ANOMALY":"258.5271","TLE_LINE1":"1 47630U 21012L   21286.69040479  .00002072  00000-0  15794-3 0  9994","LAUNCH_DATE":"2021-02-16","MEAN_MOTION":"15.06409576"},{"PERIOD":"91.842","ECCENTRICITY":"0.00036690","PERIAPSIS":"362.403","REV_AT_EPOCH":"366","TIME_SYSTEM":"UTC","OBJECT_NAME":"STARLINK-1985","NORAD_CAT_ID":"47631","COUNTRY_CODE":"US","FILE":"3161149","RCS_SIZE":"LARGE","CLASSIFICATION_TYPE":"U","GP_ID":"187100725","TLE_LINE2":"2 47631  53.0434 350.7111 0003669  31.2947 285.4076 15.67912500  3663","SITE":"AFETR","INCLINATION":"53.0434","EPHEMERIS_TYPE":"0","LAUNCH_DATE":"2021-02-16","MEAN_ANOMALY":"285.4076","TLE_LINE1":"1 47631U 21012M   21287.00001157  .00161845  00000-0  14151-2 0  9990","MEAN_MOTION":"15.67912500","MEAN_MOTION_DOT":"0.00161845","BSTAR":"0.00141510000000","EPOCH":"2021-10-14T00:00:00.999648","REF_FRAME":"TEME","APOAPSIS":"367.351","MEAN_MOTION_DDOT":"0.0000000000000","OBJECT_TYPE":"PAYLOAD","RA_OF_ASC_NODE":"350.7111","DECAY_DATE":null,"OBJECT_ID":"2021-012M","ELEMENT_SET_NO":"999","MEAN_ELEMENT_THEORY":"SGP4","SEMIMAJOR_AXIS":"6743.012","ARG_OF_PERICENTER":"31.2947","CENTER_NAME":"EARTH"},{"PERIAPSIS":"507.617","ECCENTRICITY":"0.00019750","PERIOD":"94.802","OBJECT_NAME":"STARLINK-1992","TIME_SYSTEM":"UTC","REV_AT_EPOCH":"365","FILE":"3161149","COUNTRY_CODE":"US","NORAD_CAT_ID":"47632","CLASSIFICATION_TYPE":"U","RCS_SIZE":"LARGE","GP_ID":"187101477","SITE":"AFETR","TLE_LINE2":"2 47632  53.0433 354.0420 0001975  31.9497  75.5501 15.18962247  3657","EPHEMERIS_TYPE":"0","INCLINATION":"53.0433","MEAN_ANOMALY":"75.5501","TLE_LINE1":"1 47632U 21012N   21287.00001157 -.01056753  00000-0 -54526-1 0  9994","LAUNCH_DATE":"2021-02-16","MEAN_MOTION":"15.18962247","EPOCH":"2021-10-14T00:00:00.999648","BSTAR":"-0.05452600000000","MEAN_MOTION_DOT":"-0.01056753","RA_OF_ASC_NODE":"354.0420","OBJECT_TYPE":"PAYLOAD","MEAN_MOTION_DDOT":"0.0000000000000","APOAPSIS":"510.338","REF_FRAME":"TEME","OBJECT_ID":"2021-012N","DECAY_DATE":null,"ELEMENT_SET_NO":"999","SEMIMAJOR_AXIS":"6887.113","ARG_OF_PERICENTER":"31.9497","CENTER_NAME":"EARTH","MEAN_ELEMENT_THEORY":"SGP4"},{"BSTAR":"0.00000135200000","MEAN_MOTION_DOT":"-0.00000261","EPOCH":"2021-10-13T15:23:53.891808","APOAPSIS":"548.323","REF_FRAME":"TEME","RA_OF_ASC_NODE":"90.4279","OBJECT_TYPE":"PAYLOAD","MEAN_MOTION_DDOT":"0.0000000000000","LAUNCH_DATE":"2021-02-16","MEAN_ANOMALY":"270.8564","TLE_LINE1":"1 47633U 21012P   21286.64159597 -.00000261  00000-0  13520-5 0  9990","MEAN_MOTION":"15.06391526","ELEMENT_SET_NO":"999","CENTER_NAME":"EARTH","SEMIMAJOR_AXIS":"6925.375","ARG_OF_PERICENTER":"89.2604","MEAN_ELEMENT_THEORY":"SGP4","DECAY_DATE":null,"OBJECT_ID":"2021-012P","NORAD_CAT_ID":"47633","FILE":"3161149","COUNTRY_CODE":"US","CLASSIFICATION_TYPE":"U","RCS_SIZE":"LARGE","PERIAPSIS":"546.156","ECCENTRICITY":"0.00015640","PERIOD":"95.593","REV_AT_EPOCH":"3763","TIME_SYSTEM":"UTC","OBJECT_NAME":"STARLINK-2009","INCLINATION":"53.0539","EPHEMERIS_TYPE":"0","GP_ID":"187101724","TLE_LINE2":"2 47633  53.0539  90.4279 0001564  89.2604 270.8564 15.06391526 37635","SITE":"AFETR"},{"MEAN_ELEMENT_THEORY":"SGP4","CENTER_NAME":"EARTH","SEMIMAJOR_AXIS":"6925.329","ARG_OF_PERICENTER":"80.2978","ELEMENT_SET_NO":"999","DECAY_DATE":null,"OBJECT_ID":"2021-012Q","REF_FRAME":"TEME","APOAPSIS":"548.167","MEAN_MOTION_DDOT":"0.0000000000000","RA_OF_ASC_NODE":"89.9363","OBJECT_TYPE":"PAYLOAD","MEAN_MOTION_DOT":"-0.00000147","BSTAR":"0.00000904240000","EPOCH":"2021-10-13T18:03:07.536384","MEAN_MOTION":"15.06406478","LAUNCH_DATE":"2021-02-16","TLE_LINE1":"1 47634U 21012Q   21286.75217056 -.00000147  00000-0  90424-5 0  9999","MEAN_ANOMALY":"279.8170","INCLINATION":"53.0562","EPHEMERIS_TYPE":"0","TLE_LINE2":"2 47634  53.0562  89.9363 0001406  80.2978 279.8170 15.06406478 37623","SITE":"AFETR","GP_ID":"187100975","RCS_SIZE":"LARGE","CLASSIFICATION_TYPE":"U","NORAD_CAT_ID":"47634","COUNTRY_CODE":"US","FILE":"3161149","REV_AT_EPOCH":"3762","TIME_SYSTEM":"UTC","OBJECT_NAME":"STARLINK-2010","PERIOD":"95.592","ECCENTRICITY":"0.00014060","PERIAPSIS":"546.220"},{"DECAY_DATE":null,"OBJECT_ID":"2021-012R","ELEMENT_SET_NO":"999","MEAN_ELEMENT_THEORY":"SGP4","SEMIMAJOR_AXIS":"6883.116","CENTER_NAME":"EARTH","ARG_OF_PERICENTER":"51.4426","LAUNCH_DATE":"2021-02-16","TLE_LINE1":"1 47635U 21012R   21287.00001157 -.00927836  00000-0 -45560-1 0  9993","MEAN_ANOMALY":"204.5213","MEAN_MOTION":"15.20285497","MEAN_MOTION_DOT":"-0.00927836","BSTAR":"-0.04556000000000","EPOCH":"2021-10-14T00:00:00.999648","REF_FRAME":"TEME","APOAPSIS":"506.036","MEAN_MOTION_DDOT":"0.0000000000000","OBJECT_TYPE":"PAYLOAD","RA_OF_ASC_NODE":"354.1556","GP_ID":"187101225","TLE_LINE2":"2 47635  53.0394 354.1556 0001533  51.4426 204.5213 15.20285497  3647","SITE":"AFETR","INCLINATION":"53.0394","EPHEMERIS_TYPE":"0","PERIOD":"94.719","PERIAPSIS":"503.926","ECCENTRICITY":"0.00015330","REV_AT_EPOCH":"364","OBJECT_NAME":"STARLINK-2012","TIME_SYSTEM":"UTC","NORAD_CAT_ID":"47635","COUNTRY_CODE":"US","FILE":"3161149","RCS_SIZE":"LARGE","CLASSIFICATION_TYPE":"U"},{"ECCENTRICITY":"0.00048770","PERIAPSIS":"543.832","PERIOD":"95.592","REV_AT_EPOCH":"3789","TIME_SYSTEM":"UTC","OBJECT_NAME":"STARLINK-2013","NORAD_CAT_ID":"47636","FILE":"3161149","COUNTRY_CODE":"US","CLASSIFICATION_TYPE":"U","RCS_SIZE":"LARGE","GP_ID":"187101977","TLE_LINE2":"2 47636  53.0537  70.2720 0004877 318.6435  41.4185 15.06401423 37891","SITE":"AFETR","INCLINATION":"53.0537","EPHEMERIS_TYPE":"0","LAUNCH_DATE":"2021-02-16","MEAN_ANOMALY":"41.4185","TLE_LINE1":"1 47636U 21012S   21286.67290871  .00000189  00000-0  31705-4 0  9999","MEAN_MOTION":"15.06401423","BSTAR":"0.00003170500000","MEAN_MOTION_DOT":"0.00000189","EPOCH":"2021-10-13T16:08:59.312544","APOAPSIS":"550.587","REF_FRAME":"TEME","OBJECT_TYPE":"PAYLOAD","RA_OF_ASC_NODE":"70.2720","MEAN_MOTION_DDOT":"0.0000000000000","DECAY_DATE":null,"OBJECT_ID":"2021-012S","ELEMENT_SET_NO":"999","ARG_OF_PERICENTER":"318.6435","SEMIMAJOR_AXIS":"6925.344","CENTER_NAME":"EARTH","MEAN_ELEMENT_THEORY":"SGP4"},{"COUNTRY_CODE":"US","FILE":"3160689","NORAD_CAT_ID":"47637","RCS_SIZE":"LARGE","CLASSIFICATION_TYPE":"U","PERIOD":"95.592","ECCENTRICITY":"0.00019800","PERIAPSIS":"545.847","OBJECT_NAME":"STARLINK-2014","TIME_SYSTEM":"UTC","REV_AT_EPOCH":"3787","EPHEMERIS_TYPE":"0","INCLINATION":"53.0558","GP_ID":"187069087","SITE":"AFETR","TLE_LINE2":"2 47637  53.0558  71.3001 0001980  72.2470 287.8735 15.06398423 37873","EPOCH":"2021-10-13T10:39:55.080864","MEAN_MOTION_DOT":"0.00001362","BSTAR":"0.00011036000000","MEAN_MOTION_DDOT":"0.0000000000000","RA_OF_ASC_NODE":"71.3001","OBJECT_TYPE":"PAYLOAD","REF_FRAME":"TEME","APOAPSIS":"548.590","MEAN_ANOMALY":"287.8735","TLE_LINE1":"1 47637U 21012T   21286.44438751  .00001362  00000-0  11036-3 0  9994","LAUNCH_DATE":"2021-02-16","MEAN_MOTION":"15.06398423","ELEMENT_SET_NO":"999","MEAN_ELEMENT_THEORY":"SGP4","CENTER_NAME":"EARTH","SEMIMAJOR_AXIS":"6925.353","ARG_OF_PERICENTER":"72.2470","OBJECT_ID":"2021-012T","DECAY_DATE":null}];
